ONEWEB-0403             
1 50483U 21132Q   24253.55958397  .00000043  00000+0  75993-4 0  9999
2 50483  87.9070 103.9795 0001595  75.3803 284.7505 13.18687179137781
ONEWEB-0404             
1 50484U 21132R   24253.17414698  .00000600  00000+0  16569-2 0  9990
2 50484  87.8985 149.7168 0002011  62.3933 297.7399 13.11418195132291
ONEWEB-0405             
1 50485U 21132S   24252.81660030  .00000056  00000+0  11046-3 0  9995
2 50485  87.9072 104.1174 0001262  77.4440 282.6833 13.18687337136809
ONEWEB-0406             
1 50486U 21132T   24253.10905673  .00000092  00000+0  20147-3 0  9996
2 50486  87.9075 104.0725 0002323  73.7532 286.3856 13.18687394137769
ONEWEB-0407             
1 50487U 21132U   24253.10273123  .00000111  00000+0  24994-3 0  9991
2 50487  87.9070 104.0718 0001533  75.6673 284.4629 13.18685684137707
ONEWEB-0409             
1 50488U 21132V   24253.47764761  .00000559  00000+0  15421-2 0  9995
2 50488  87.8977 149.6461 0002244  70.4511 289.6859 13.11414748132236
ONEWEB-0412             
1 50489U 21132W   24253.54692203  .00000056  00000+0  11033-3 0  9993
2 50489  87.9073 103.9867 0001210  77.9063 282.2204 13.18685038137848
ONEWEB-0413             
1 50490U 21132X   24253.55166914  .00000058  00000+0  11530-3 0  9995
2 50490  87.9073 103.9984 0001298  86.7946 273.3335 13.18685828137791
